MOLNIYA 2-9             
1 07276U 74026A   23053.91428893  .00000142  00000+0  00000+0 0  9993
2 07276  64.2813 192.9116 6394416 277.9468  18.7398  2.45096481255358
MOLNIYA 2-10            
1 07376U 74056A   23054.97964587 -.00001245  00000+0  00000+0 0  9995
2 07376  64.5032  68.4132 6783307 284.5584  13.7887  2.01150837355418
MOLNIYA 1-S             
1 07392U 74060A   23055.20882970  .00000137  00000+0  00000+0 0  9998
2 07392   4.4804 279.0277 0009962 214.6401 136.3940  1.00271701122045
MOLNIYA 1-29            
1 07780U 75036A   23054.41669890  .00000146  00000+0 -63965-1 0  9991
2 07780  63.4125 188.1215 6790646 287.5377  12.8614  2.00579054350651
MOLNIYA 2-14            
1 08195U 75081A   23055.55372162  .00000947  00000+0  00000+0 0  9998
2 08195  63.3875 161.4769 6723645 291.8087  12.1765  2.02059003348030
MOLNIYA 1-32            
1 08601U 76006A   23053.98586286 -.00001353  00000+0  00000+0 0  9990
2 08601  63.5497 263.9672 7131737 283.9322  11.7422  2.00034496 57674
MOLNIYA 1-36            
1 09880U 77021A   23055.44316004 -.00001240  00000+0  00000+0 0  9995
2 09880  63.4640 236.4963 7042589 289.4829  10.8496  2.00498076234519
MOLNIYA 3-8             
1 10455U 77105A   23054.74399347 -.00000668  00000+0  15816-2 0  9998
2 10455  63.4370 320.0934 7316121 282.6548  11.0856  2.00438157332185
MOLNIYA 1-40            
1 10925U 78055A   23054.88504757 -.00000874  00000+0  00000+0 0  9998
2 10925  63.5970  12.1669 7269478 280.7146  11.8266  2.00591033327723
MOLNIYA 3-10            
1 11057U 78095A   23054.40511153 -.00000154  00000+0 -50877-3 0  9998
2 11057  63.2530 307.3396 5771532 312.1963  11.5323  4.09880227394013
MOLNIYA 3-13            
1 11896U 80063A   23053.17078444 -.00000145  00000+0  00000+0 0  9999
2 11896  62.7906 104.7171 7176430 276.7758  13.4045  2.00594321312108
MOLNIYA 1-49            
1 12156U 81009A   23051.60636155 -.00000150  00000+0  11355-2 0  9999
2 12156  61.6878 126.5225 7360272 266.3864  15.2634  2.05706662226597
MOLNIYA 1-52            
1 13012U 81123A   23054.63413224  .00001473  00000+0  21779-1 0  9992
2 13012  61.6431 242.7510 7185266 258.3507  19.9943  2.00749014301619
MOLNIYA 1-53            
1 13070U 82015A   23055.39171121  .00000086  00000+0 -44907-1 0  9996
2 13070  62.5286 183.8288 6958855 283.1682  13.0330  2.00343332300313
MOLNIYA 3-20            
1 13875U 83015A   23054.71503880 -.00000909  00000+0 -63638-3 0  9995
2 13875  62.5178 312.8918 7373766 260.5686  17.3199  2.00839782228752
MOLNIYA 1-56            
1 13890U 83019A   23054.75030853 -.00001079  00000+0  64380-3 0  9998
2 13890  62.8258 337.4198 7442313 266.3847  14.6812  1.99933502291622
MOLNIYA 1-62            
1 15214U 84089A   23045.17069386  .00009439  10365-5  51717-3 0  9995
2 15214  62.9211 330.1209 7309191 273.9344  13.4055  2.27989084249547
MOLNIYA 1-63            
1 15429U 84124A   23052.17581682 -.00001070  00000+0  00000+0 0  9997
2 15429  63.6975 143.4130 6743107 257.9024  20.0637  2.00641619279748
MOLNIYA 3-24            
1 15738U 85040A   23053.52358267 -.00000074  00000+0  97256-4 0  9996
2 15738  63.5485  35.2698 6876153 247.2602  29.9992  2.55631232310260
MOLNIYA 3-27            
1 16393U 85117A   23055.11318239 -.00000128  00000+0  00000+0 0  9997
2 16393  64.2462  47.7574 7071406 246.8714  27.8526  2.12398569279529
MOLNIYA 1-69            
1 17078U 86089A   23053.48830559  .00001324  00000+0  00000+0 0  9997
2 17078  64.0317 162.4752 6728416 256.0174  26.0045  2.00849443265848
MOLNIYA 3-31            
1 17328U 87008A   23055.13848108 -.00000416  00000+0  00000+0 0  9992
2 17328  63.6319  97.5188 7169151 253.1268  22.8576  2.00650805260910
MOLNIYA 1-71            
1 18946U 88017A   23055.14389984  .00000158  00000+0  00000+0 0  9995
2 18946  63.3264  89.5550 7278103 256.3683  20.0746  2.00586385256107
MOLNIYA 1-75            
1 19807U 89014A   23053.89902170 -.00000488  00000+0  00000+0 0  9995
2 19807  63.9347 257.6580 6763323 265.6760  20.6908  2.00507822249088
MOLNIYA 1-80            
1 21118U 91012A   23055.04206628  .00000307  00000+0  00000+0 0  9997
2 21118  65.1796 305.9351 6718095 274.3441  17.6883  2.05232008236147
MOLNIYA 3-40            
1 21196U 91022A   23055.05070794 -.00000466  00000+0  00000+0 0  9995
2 21196  65.0502 299.6742 6744671 271.2433  18.6274  2.02998713234766
MOLNIYA 1-81            
1 21426U 91043A   23054.25250383 -.00000110  00000+0  00000+0 0  9995
2 21426  63.9507 312.4469 7052388 265.6425  18.2279  2.00603848232174
MOLNIYA 3-41            
1 21706U 91065A   23054.43864243  .00001152  00000+0  00000+0 0  9992
2 21706  64.0722 137.9197 6959917 253.6211  24.8652  2.04345092231992
MOLNIYA 3-42            
1 22178U 92067A   23052.84810682  .00000173  00000+0  00000+0 0  9992
2 22178  64.6761 189.8732 6423811 262.9091  25.3012  2.20434512 85553
MOLNIYA 1-86            
1 22671U 93035A   23055.51149066  .00000356  00000+0  55180-3 0  9990
2 22671  63.1007  90.2031 4854416  11.1398 356.6709  5.62799394366484
MOLNIYA 1-87            
1 22949U 93079A   23054.45586950 -.00001184  00000+0  00000+0 0  9993
2 22949  64.2849  63.1598 6928773 282.7041  13.3836  2.02867693 80026
MOLNIYA 1-88            
1 23420U 94081A   23054.31951212  .00000076  00000+0  00000+0 0  9992
2 23420  64.2820 140.5310 5802899 278.3400  23.3404  3.34497694122093
MOLNIYA 3-47            
1 23642U 95042A   23054.31893996 -.00000502  00000+0  00000+0 0  9995
2 23642  64.4232  44.6284 6964185 282.9500  13.1096  2.01928022202081
MOLNIYA 1-90            
1 24960U 97054A   23055.06289416  .00000062  00000+0  23611-3 0  9990
2 24960  63.7409 105.9053 6098249 296.7848  14.3464  3.18690408216029
MOLNIYA 1-91            
1 25485U 98054A   23055.50010650  .00000113  00000+0  22925-2 0  9998
2 25485  63.1727 111.0232 6778126 291.8164  29.9236  2.36445630184333
MOLNIYA 3-50            
1 25847U 99036A   23053.70312085 -.00000271  00000+0  51788-3 0  9994
2 25847  63.3147 296.7476 7298881 282.6708  11.1398  2.00618355173137
